PROGRESS-MS 32          
1 65586U 25204A   25329.89948173  .00012595  00000+0  23568-3 0  9991
2 65586  51.6312 225.8381 0003834 168.1565 191.9514 15.49084902   270
CYGNUS NG-23            
1 65616U 25208A   25329.89948173  .00012595  00000+0  23568-3 0  9999
2 65616  51.6312 225.8381 0003834 168.1565 191.9514 15.49084902   229
DRAGONFLY               
1 65729U 98067XH  25330.11272931  .00135859  00000+0  12736-2 0  9999
2 65729  51.6259 220.5120 0006321 183.3895 176.7059 15.66234288 10551
1998-067XJ              
1 65730U 98067XJ  25330.09616337  .00989567  44370-3  26464-2 0  9998
2 65730  51.6173 216.5994 0012384 189.8744 170.2022 15.93800834 10603
1998-067XK              
1 65731U 98067XK  25330.11948109  .00087381  00000+0  96832-3 0  9995
2 65731  51.6289 221.3146 0006097 158.2486 201.8768 15.62206517 10547
YOTSUBA-KULOVER         
1 65941U 98067XN  25329.97208846  .00065537  00000+0  89574-3 0  9991
2 65941  51.6302 224.0758 0002379 131.3125 228.8072 15.56822877  7242
BOTAN                   
1 65942U 98067XP  25330.00704168  .00095464  00000+0  11946-2 0  9995
2 65942  51.6292 223.5603 0004677 136.1264 224.0101 15.59004902  7250
E-KAGAKU-1              
1 65943U 98067XQ  25329.97180652  .00065639  00000+0  89771-3 0  9999
2 65943  51.6306 224.0763 0003893 117.1755 242.9634 15.56800574  7248
HTV-X1                  
1 66174U 25241A   25329.89948173  .00012595  00000+0  23568-3 0  9996
2 66174  51.6312 225.8381 0003834 168.1565 191.9514 15.49084902   511
